1 18962U 63014DN  10224.08833003 +.00000004 +00000-0 +10000-3 0  9992
2 18962 087.3144 110.2005 0118761 116.1785 245.1391 08.71238154721685
1 18962U 63014DN  10225.69576581 +.00000004 +00000-0 +10000-3 0  9995
2 18962 087.3139 110.0441 0120767 114.5495 246.7710 08.71238597721829
1 18962U 63014DN  10226.15504393  .00000004  00000-0  10000-3 0  9999
2 18962 087.3045 109.9927 0122616 115.8152 245.5624 08.71238291721866
1 18962U 63014DN  10226.61430616 +.00000004 +00000-0 +10000-3 0  9996
2 18962 087.2976 109.9459 0122972 115.1940 246.1582 08.71236627721907
1 18962U 63014DN  10226.72912822 +.00000004 +00000-0 +10000-3 0  9992
2 18962 087.3020 109.9321 0123108 115.0117 246.3576 08.71237304721912
1 18962U 63014DN  10228.22175395  .00000004  00000-0  10000-3 0  9995
2 18962 087.3034 109.7875 0123660 113.1105 248.3284 08.71244653722046
1 18962U 63014DN  10230.17361773 +.00000004 +00000-0 +10000-3 0  9999
2 18962 087.3164 109.6079 0124029 110.6619 250.7555 08.71245799722216
1 18962U 63014DN  10231.09214815  .00000004  00000-0  10000-3 0  9995
2 18962 087.3221 109.5163 0117970 114.9048 246.6656 08.71245811722292
1 18962U 63014DN  10231.66628160  .00000000  00000-0  10000-3 0  9996
2 18962 087.3135 109.4629 0128754 107.4967 254.0452 08.71246476722342
1 18962U 63014DN  10231.78096471  .00000004  00000-0  10000-3 0  9997
2 18962 087.3201 109.4504 0128784 106.9080 254.2003 08.71246008722357
1 18962U 63014DN  10232.69961790 +.00000004 +00000-0 +10000-3 0  9993
2 18962 087.3178 109.3619 0129553 106.3669 255.1382 08.71245508722431
1 18962U 63014DN  10233.15888557  .00000004  00000-0  10000-3 0  9994
2 18962 087.3186 109.3171 0130106 106.2373 255.2923 08.71246654722479
1 18962U 63014DN  10233.61814708 +.00000004 +00000-0 +10000-3 0  9992
2 18962 087.3183 109.2726 0130565 105.9043 255.6139 08.71245390722514
1 18962U 63014DN  10234.19223140 +.00000004 +00000-0 +10000-3 0  9990
2 18962 087.3182 109.2165 0131065 105.5101 256.0306 08.71245552722563
1 18962U 63014DN  10235.11075945 +.00000004 +00000-0 +10000-3 0  9991
2 18962 087.3177 109.1276 0131370 104.6057 256.9496 08.71247405722645
1 18962U 63014DN  10236.14409960  .00000004  00000-0  10000-3 0  9993
2 18962 087.3169 109.0276 0131989 103.8004 257.7590 08.71248184722733
1 18962U 63014DN  10237.17744124  .00000004  00000-0  10000-3 0  9991
2 18962 087.3327 108.9166 0118724 111.4232 250.4065 08.71248608722823
1 18962U 63014DN  10237.75136950  .00000004  00000-0  10000-3 0  9997
2 18962 087.3164 108.8707 0136371 101.2727 259.7755 08.71248644722879
1 18962U 63014DN  10238.67007714 +.00000004 +00000-0 +10000-3 0  9994
2 18962 087.3155 108.7807 0136762 100.4012 261.2199 08.71248417722958
1 18962U 63014DN  10239.58860385 +.00000004 +00000-0 +10000-3 0  9996
2 18962 087.3141 108.6909 0137346 099.7982 261.8295 08.71247560723031
1 18962U 63014DN  10240.04787085  .00000004  00000-0  10000-3 0  9994
2 18962 087.3154 108.6456 0137638 099.1609 262.4795 08.71247900723070
1 18962U 63014DN  10241.65529408  .00000004  00000-0  10000-3 0  9995
2 18962 087.3174 108.4891 0139472 098.3703 263.2859 08.71246057723215
1 18962U 63014DN  10242.68863767 +.00000004 +00000-0 +10000-3 0  9998
2 18962 087.3164 108.3879 0140770 097.1041 264.5539 08.71245380723301
1 18962U 63014DN  10243.60717572 +.00000004 +00000-0 +10000-3 0  9993
2 18962 087.3140 108.2987 0141000 095.9064 265.7810 08.71245145723384
1 18962U 63014DN  10244.52570638  .00000004  00000-0  10000-3 0  9995
2 18962 087.3127 108.2084 0141290 094.7222 266.9709 08.71244688723461
1 18962U 63014DN  10245.67386849  .00000004  00000-0  10000-3 0  9991
2 18962 087.3139 108.0966 0161874 096.9334 265.0200 08.71244523723564
1 18962U 63014DN  10245.67386849 +.00000004 +00000-0 +10000-3 0  9991
2 18962 087.3139 108.0966 0161874 096.9334 265.0200 08.71244523723564
1 18962U 63014DN  10246.13312569  .00000004  00000-0  10000-3 0  9991
2 18962 087.3140 108.0512 0145511 093.3992 268.3228 08.71244214723602
1 18962U 63014DN  10247.16648012  .00000004  00000-0  10000-3 0  9990
2 18962 087.3148 107.9510 0145324 092.7279 269.0481 08.71247539723690
1 18962U 63014DN  10247.62573457 +.00000004 +00000-0 +10000-3 0  9991
2 18962 087.3160 107.9056 0145759 092.1962 269.5423 08.71245895723733
1 18962U 63014DN  10249.57760104  .00000004  00000-0  10000-3 0  9994
2 18962 087.3156 107.7161 0147667 090.7049 271.0580 08.71248431723903
1 18962U 63014DN  10250.61094433 +.00000004 +00000-0 +10000-3 0  9996
2 18962 087.3142 107.6149 0148546 089.5341 272.2322 08.71246647723994
1 18962U 63014DN  10252.10355546  .00000004  00000-0  10000-3 0  9997
2 18962 087.3119 107.4683 0149067 088.1004 273.7171 08.71250450724120
1 18962U 63014DN  10252.67762339  .00000004  00000-0  10000-3 0  9991
2 18962 087.3106 107.4123 0150008 087.0795 274.6872 08.71248948724179
1 18962U 63014DN  10253.59615739 +.00000004 +00000-0 +10000-3 0  9994
2 18962 087.3073 107.3209 0150752 085.8872 275.9009 08.71246887724259
1 18962U 63014DN  10254.62950403  .00000004  00000-0  10000-3 0  9999
2 18962 087.3131 107.2216 0147014 085.6970 276.0847 08.71246092724345
1 18962U 63014DN  10255.08876131  .00000004  00000-0  10000-3 0  9995
2 18962 087.3158 107.1768 0148537 087.3738 274.4720 08.71247738724381
1 18962U 63014DN  10255.66281964 +.00000004 +00000-0 +10000-3 0  9993
2 18962 087.3141 107.1217 0148818 086.4815 275.2952 08.71247738724432
1 18962U 63014DN  10256.58134696 +.00000004 +00000-0 +10000-3 0  9994
2 18962 087.3148 107.0320 0149164 085.4585 276.3298 08.71248118724518
1 18962U 63014DN  10257.61468588  .00000004  00000-0  10000-3 0  9999
2 18962 087.3146 106.9311 0149393 084.0021 277.7771 08.71248222724605
1 18962U 63014DN  10258.07394972  .00000004  00000-0  10000-3 0  9995
2 18962 087.2701 106.8548 0154344 087.1835 274.6961 08.71248124724643
1 18962U 63014DN  10258.64801798  .00000004  00000-0  10000-3 0  9997
2 18962 087.3119 106.8314 0155101 081.7064 280.0625 08.71248009724699
1 18962U 63014DN  10259.68137948 +.00000004 +00000-0 +10000-3 0  9991
2 18962 087.3118 106.7307 0155142 080.7719 281.0686 08.71248417724781
1 18962U 63014DN  10260.59990082  .00000004  00000-0  10000-3 0  9999
2 18962 087.3165 106.6387 0155335 080.1395 281.7086 08.71249708724862
1 18962U 63014DN  10261.63323526  .00000004  00000-0  10000-3 0  9998
2 18962 087.3333 106.5525 0157300 077.4681 284.3458 08.71249262724950
1 18962U 63014DN  10262.66657734 +.00000004 +00000-0 +10000-3 0  9993
2 18962 087.3276 106.4466 0157882 076.4233 285.4061 08.71249461725040
1 18962U 63014DN  10263.58509831  .00000004  00000-0  10000-3 0  9999
2 18962 087.3196 106.3527 0158206 076.0200 285.8152 08.71249543725124
1 18962U 63014DN  10264.50362017  .00000004  00000-0  10000-3 0  9995
2 18962 087.3103 106.2583 0157998 076.1840 285.6712 08.71250168725205
1 18962U 63014DN  10265.07768974  .00000004  00000-0  10000-3 0  9990
2 18962 087.3148 106.2040 0158802 075.0531 286.7885 08.71252623725258
1 18962U 63014DN  10265.65176179 +.00000004 +00000-0 +10000-3 0  9994
2 18962 087.3139 106.1486 0158972 074.7430 287.0848 08.71251611725308
1 18962U 63014DN  10266.57028178  .00000004  00000-0  10000-3 0  9991
2 18962 087.3123 106.0598 0159829 073.4068 288.4088 08.71250850725382
1 18962U 63014DN  10267.48880644 +.00000004 +00000-0 +10000-3 0  9996
2 18962 087.3129 105.9694 0159905 072.6011 289.2303 08.71251384725468
1 18962U 63014DN  10267.94806418  .00000004  00000-0  10000-3 0  9994
2 18962 087.3114 105.9244 0160230 072.1388 289.6936 08.71252699725509
1 18962U 63014DN  10268.52213507 +.00000004 +00000-0 +10000-3 0  9990
2 18962 087.3065 105.8648 0159752 072.5071 289.3235 08.71251755725557
1 18962U 63014DN  10270.01472419  .00000004  00000-0  10000-3 0  9996
2 18962 087.3061 105.7188 0160119 070.9638 290.8557 08.71253147725686
1 18962U 63014DN  10270.58879447 +.00000004 +00000-0 +10000-3 0  9990
2 18962 087.3058 105.6629 0160638 070.2369 291.5592 08.71252360725730
1 18962U 63014DN  10271.04805732 +.00000004 +00000-0 +10000-3 0  9998
2 18962 087.3064 105.6183 0160658 069.9736 291.8358 08.71252233725773
1 18962U 63014DN  10272.08138796  .00000004  00000-0  10000-3 0  9992
2 18962 087.3071 105.5175 0160890 068.9989 292.8027 08.71253524725866
1 18962U 63014DN  10272.54064464 +.00000004 +00000-0 +10000-3 0  9993
2 18962 087.3071 105.4725 0161061 068.4622 293.3248 08.71252889725905
1 18962U 63014DN  10273.57397711 +.00000004 +00000-0 +10000-3 0  9991
2 18962 087.3123 105.3714 0160640 068.0151 293.7745 08.71252548725992
1 18962U 63014DN  10274.49249142  .00000004  00000-0  10000-3 0  9997
2 18962 087.3095 105.2825 0161486 066.7592 295.0100 08.71252480726070
1 18962U 63014DN  10275.52582434 +.00000004 +00000-0 +10000-3 0  9996
2 18962 087.3085 105.1816 0162500 065.0821 296.6696 08.71252251726166
1 18962U 63014DN  10276.55915648  .00000004  00000-0  10000-3 0  9997
2 18962 087.3067 105.0792 0162543 064.1569 297.5937 08.71252973726253
1 18962U 63014DN  10277.01841451 +.00000004 +00000-0 +10000-3 0  9999
2 18962 087.3068 105.0350 0162328 063.9557 297.7983 08.71253519726293
1 18962U 63014DN  10278.05174097  .00000004  00000-0  10000-3 0  9999
2 18962 087.3069 104.9338 0162252 063.0871 298.6486 08.71253749726387
1 18962U 63014DN  10278.51099730 +.00000004 +00000-0 +10000-3 0  9990
2 18962 087.3070 104.8888 0162296 062.6167 299.1084 08.71253580726427
1 18962U 63014DN  10278.97025495 +.00000004 +00000-0 +10000-3 0  9997
2 18962 087.3063 104.8440 0162274 062.2299 299.4929 08.71253929726463
1 18962U 63014DN  10280.57764963  .00000004  00000-0  10000-3 0  9996
2 18962 087.3074 104.6866 0161694 060.6542 301.0315 08.71253544726601
1 18962U 63014DN  10281.49616496 +.00000004 +00000-0 +10000-3 0  9995
2 18962 087.3067 104.5969 0161818 059.6320 302.0434 08.71253639726682
1 18962U 63014DN  10282.52949257 +.00000004 +00000-0 +10000-3 0  9994
2 18962 087.3066 104.4958 0161808 058.5916 303.0670 08.71253674726778
1 18962U 63014DN  10282.98874888  .00000004  00000-0  10000-3 0  9991
2 18962 087.3070 104.4509 0161652 058.3111 303.3450 08.71253763726810
